ORBCOMM FM103           
1 40091U 14040F   25111.51916548  .00001498  00000+0  35894-3 0  9995
2 40091  47.0058 285.4082 0001457   3.6954 356.3942 14.58066314572894
ORBCOMM FM114           
1 41179U 15081A   25110.65161151  .00001130  00000+0  27954-3 0  9996
2 41179  47.0020 198.5831 0001084  93.5320 266.5690 14.58120543496070
ORBCOMM FM119           
1 41180U 15081B   25111.18511724  .00001232  00000+0  30190-3 0  9991
2 41180  46.9990 105.3557 0000855 212.0550 148.0283 14.58036509497403
ORBCOMM FM105           
1 41181U 15081C   25110.35574474  .00000529  00000+0  19436-3 0  9999
2 41181  46.9999 108.6103 0001100  27.9845 332.1094 14.45162680492384
ORBCOMM FM110           
1 41182U 15081D   25111.51967155  .00001835  00000+0  43220-3 0  9990
2 41182  47.0003 193.8676 0002922 263.5553  96.4999 14.57991120496257
ORBCOMM FM118           
1 41183U 15081E   25110.68176542  .00001471  00000+0  35313-3 0  9990
2 41183  47.0028 198.2797 0003495 241.5253 118.5280 14.58086990496055
ORBCOMM FM112           
1 41184U 15081F   25111.02478360  .00001135  00000+0  28120-3 0  9998
2 41184  46.9977 105.2756 0000327  86.7665 273.3258 14.57987639497377
ORBCOMM FM113           
1 41185U 15081G   25111.27560312  .00001578  00000+0  37648-3 0  9991
2 41185  46.9993 104.4063 0000312 185.0722 175.0160 14.58031288497415
