<?xml version="1.0" encoding="UTF-8"?>
<ndm xmlns:xsi="http://www.w3.org/2001/XMLSchema-instance" xsi:noNamespaceSchemaLocation="https://sanaregistry.org/r/ndmxml_unqualified/ndmxml-2.0.0-master-2.0.xsd">
<omm id="CCSDS_OMM_VERS" version="2.0">
<header><CREATION_DATE/><ORIGINATOR/></header><body><segment><metadata><OBJECT_NAME>ORBCOMM FM103</OBJECT_NAME><OBJECT_ID>2014-040F</OBJECT_ID><CENTER_NAME>EARTH</CENTER_NAME><REF_FRAME>TEME</REF_FRAME><TIME_SYSTEM>UTC</TIME_SYSTEM><MEAN_ELEMENT_THEORY>SGP4</MEAN_ELEMENT_THEORY></metadata><data><meanElements><EPOCH>2025-04-21T12:27:35.897472</EPOCH><MEAN_MOTION>14.58066314</MEAN_MOTION><ECCENTRICITY>.0001457</ECCENTRICITY><INCLINATION>47.0058</INCLINATION><RA_OF_ASC_NODE>285.4082</RA_OF_ASC_NODE><ARG_OF_PERICENTER>3.6954</ARG_OF_PERICENTER><MEAN_ANOMALY>356.3942</MEAN_ANOMALY></meanElements><tleParameters><EPHEMERIS_TYPE>0</EPHEMERIS_TYPE><CLASSIFICATION_TYPE>U</CLASSIFICATION_TYPE><NORAD_CAT_ID>40091</NORAD_CAT_ID><ELEMENT_SET_NO>999</ELEMENT_SET_NO><REV_AT_EPOCH>57289</REV_AT_EPOCH><BSTAR>.35894E-3</BSTAR><MEAN_MOTION_DOT>.1498E-4</MEAN_MOTION_DOT><MEAN_MOTION_DDOT>0</MEAN_MOTION_DDOT></tleParameters></data></segment></body></omm>
<omm id="CCSDS_OMM_VERS" version="2.0">
<header><CREATION_DATE/><ORIGINATOR/></header><body><segment><metadata><OBJECT_NAME>ORBCOMM FM114</OBJECT_NAME><OBJECT_ID>2015-081A</OBJECT_ID><CENTER_NAME>EARTH</CENTER_NAME><REF_FRAME>TEME</REF_FRAME><TIME_SYSTEM>UTC</TIME_SYSTEM><MEAN_ELEMENT_THEORY>SGP4</MEAN_ELEMENT_THEORY></metadata><data><meanElements><EPOCH>2025-04-20T15:38:19.234464</EPOCH><MEAN_MOTION>14.58120543</MEAN_MOTION><ECCENTRICITY>.0001084</ECCENTRICITY><INCLINATION>47.0020</INCLINATION><RA_OF_ASC_NODE>198.5831</RA_OF_ASC_NODE><ARG_OF_PERICENTER>93.5320</ARG_OF_PERICENTER><MEAN_ANOMALY>266.5690</MEAN_ANOMALY></meanElements><tleParameters><EPHEMERIS_TYPE>0</EPHEMERIS_TYPE><CLASSIFICATION_TYPE>U</CLASSIFICATION_TYPE><NORAD_CAT_ID>41179</NORAD_CAT_ID><ELEMENT_SET_NO>999</ELEMENT_SET_NO><REV_AT_EPOCH>49607</REV_AT_EPOCH><BSTAR>.27954E-3</BSTAR><MEAN_MOTION_DOT>.113E-4</MEAN_MOTION_DOT><MEAN_MOTION_DDOT>0</MEAN_MOTION_DDOT></tleParameters></data></segment></body></omm>
<omm id="CCSDS_OMM_VERS" version="2.0">
<header><CREATION_DATE/><ORIGINATOR/></header><body><segment><metadata><OBJECT_NAME>ORBCOMM FM119</OBJECT_NAME><OBJECT_ID>2015-081B</OBJECT_ID><CENTER_NAME>EARTH</CENTER_NAME><REF_FRAME>TEME</REF_FRAME><TIME_SYSTEM>UTC</TIME_SYSTEM><MEAN_ELEMENT_THEORY>SGP4</MEAN_ELEMENT_THEORY></metadata><data><meanElements><EPOCH>2025-04-21T04:26:34.129536</EPOCH><MEAN_MOTION>14.58036509</MEAN_MOTION><ECCENTRICITY>.0000855</ECCENTRICITY><INCLINATION>46.9990</INCLINATION><RA_OF_ASC_NODE>105.3557</RA_OF_ASC_NODE><ARG_OF_PERICENTER>212.0550</ARG_OF_PERICENTER><MEAN_ANOMALY>148.0283</MEAN_ANOMALY></meanElements><tleParameters><EPHEMERIS_TYPE>0</EPHEMERIS_TYPE><CLASSIFICATION_TYPE>U</CLASSIFICATION_TYPE><NORAD_CAT_ID>41180</NORAD_CAT_ID><ELEMENT_SET_NO>999</ELEMENT_SET_NO><REV_AT_EPOCH>49740</REV_AT_EPOCH><BSTAR>.3019E-3</BSTAR><MEAN_MOTION_DOT>.1232E-4</MEAN_MOTION_DOT><MEAN_MOTION_DDOT>0</MEAN_MOTION_DDOT></tleParameters></data></segment></body></omm>
<omm id="CCSDS_OMM_VERS" version="2.0">
<header><CREATION_DATE/><ORIGINATOR/></header><body><segment><metadata><OBJECT_NAME>ORBCOMM FM105</OBJECT_NAME><OBJECT_ID>2015-081C</OBJECT_ID><CENTER_NAME>EARTH</CENTER_NAME><REF_FRAME>TEME</REF_FRAME><TIME_SYSTEM>UTC</TIME_SYSTEM><MEAN_ELEMENT_THEORY>SGP4</MEAN_ELEMENT_THEORY></metadata><data><meanElements><EPOCH>2025-04-20T08:32:16.345536</EPOCH><MEAN_MOTION>14.45162680</MEAN_MOTION><ECCENTRICITY>.00011</ECCENTRICITY><INCLINATION>46.9999</INCLINATION><RA_OF_ASC_NODE>108.6103</RA_OF_ASC_NODE><ARG_OF_PERICENTER>27.9845</ARG_OF_PERICENTER><MEAN_ANOMALY>332.1094</MEAN_ANOMALY></meanElements><tleParameters><EPHEMERIS_TYPE>0</EPHEMERIS_TYPE><CLASSIFICATION_TYPE>U</CLASSIFICATION_TYPE><NORAD_CAT_ID>41181</NORAD_CAT_ID><ELEMENT_SET_NO>999</ELEMENT_SET_NO><REV_AT_EPOCH>49238</REV_AT_EPOCH><BSTAR>.19436E-3</BSTAR><MEAN_MOTION_DOT>.529E-5</MEAN_MOTION_DOT><MEAN_MOTION_DDOT>0</MEAN_MOTION_DDOT></tleParameters></data></segment></body></omm>
<omm id="CCSDS_OMM_VERS" version="2.0">
<header><CREATION_DATE/><ORIGINATOR/></header><body><segment><metadata><OBJECT_NAME>ORBCOMM FM110</OBJECT_NAME><OBJECT_ID>2015-081D</OBJECT_ID><CENTER_NAME>EARTH</CENTER_NAME><REF_FRAME>TEME</REF_FRAME><TIME_SYSTEM>UTC</TIME_SYSTEM><MEAN_ELEMENT_THEORY>SGP4</MEAN_ELEMENT_THEORY></metadata><data><meanElements><EPOCH>2025-04-21T12:28:19.621920</EPOCH><MEAN_MOTION>14.57991120</MEAN_MOTION><ECCENTRICITY>.0002922</ECCENTRICITY><INCLINATION>47.0003</INCLINATION><RA_OF_ASC_NODE>193.8676</RA_OF_ASC_NODE><ARG_OF_PERICENTER>263.5553</ARG_OF_PERICENTER><MEAN_ANOMALY>96.4999</MEAN_ANOMALY></meanElements><tleParameters><EPHEMERIS_TYPE>0</EPHEMERIS_TYPE><CLASSIFICATION_TYPE>U</CLASSIFICATION_TYPE><NORAD_CAT_ID>41182</NORAD_CAT_ID><ELEMENT_SET_NO>999</ELEMENT_SET_NO><REV_AT_EPOCH>49625</REV_AT_EPOCH><BSTAR>.4322E-3</BSTAR><MEAN_MOTION_DOT>.1835E-4</MEAN_MOTION_DOT><MEAN_MOTION_DDOT>0</MEAN_MOTION_DDOT></tleParameters></data></segment></body></omm>
<omm id="CCSDS_OMM_VERS" version="2.0">
<header><CREATION_DATE/><ORIGINATOR/></header><body><segment><metadata><OBJECT_NAME>ORBCOMM FM118</OBJECT_NAME><OBJECT_ID>2015-081E</OBJECT_ID><CENTER_NAME>EARTH</CENTER_NAME><REF_FRAME>TEME</REF_FRAME><TIME_SYSTEM>UTC</TIME_SYSTEM><MEAN_ELEMENT_THEORY>SGP4</MEAN_ELEMENT_THEORY></metadata><data><meanElements><EPOCH>2025-04-20T16:21:44.532288</EPOCH><MEAN_MOTION>14.58086990</MEAN_MOTION><ECCENTRICITY>.0003495</ECCENTRICITY><INCLINATION>47.0028</INCLINATION><RA_OF_ASC_NODE>198.2797</RA_OF_ASC_NODE><ARG_OF_PERICENTER>241.5253</ARG_OF_PERICENTER><MEAN_ANOMALY>118.5280</MEAN_ANOMALY></meanElements><tleParameters><EPHEMERIS_TYPE>0</EPHEMERIS_TYPE><CLASSIFICATION_TYPE>U</CLASSIFICATION_TYPE><NORAD_CAT_ID>41183</NORAD_CAT_ID><ELEMENT_SET_NO>999</ELEMENT_SET_NO><REV_AT_EPOCH>49605</REV_AT_EPOCH><BSTAR>.35313E-3</BSTAR><MEAN_MOTION_DOT>.1471E-4</MEAN_MOTION_DOT><MEAN_MOTION_DDOT>0</MEAN_MOTION_DDOT></tleParameters></data></segment></body></omm>
<omm id="CCSDS_OMM_VERS" version="2.0">
<header><CREATION_DATE/><ORIGINATOR/></header><body><segment><metadata><OBJECT_NAME>ORBCOMM FM112</OBJECT_NAME><OBJECT_ID>2015-081F</OBJECT_ID><CENTER_NAME>EARTH</CENTER_NAME><REF_FRAME>TEME</REF_FRAME><TIME_SYSTEM>UTC</TIME_SYSTEM><MEAN_ELEMENT_THEORY>SGP4</MEAN_ELEMENT_THEORY></metadata><data><meanElements><EPOCH>2025-04-21T00:35:41.303040</EPOCH><MEAN_MOTION>14.57987639</MEAN_MOTION><ECCENTRICITY>.0000327</ECCENTRICITY><INCLINATION>46.9977</INCLINATION><RA_OF_ASC_NODE>105.2756</RA_OF_ASC_NODE><ARG_OF_PERICENTER>86.7665</ARG_OF_PERICENTER><MEAN_ANOMALY>273.3258</MEAN_ANOMALY></meanElements><tleParameters><EPHEMERIS_TYPE>0</EPHEMERIS_TYPE><CLASSIFICATION_TYPE>U</CLASSIFICATION_TYPE><NORAD_CAT_ID>41184</NORAD_CAT_ID><ELEMENT_SET_NO>999</ELEMENT_SET_NO><REV_AT_EPOCH>49737</REV_AT_EPOCH><BSTAR>.2812E-3</BSTAR><MEAN_MOTION_DOT>.1135E-4</MEAN_MOTION_DOT><MEAN_MOTION_DDOT>0</MEAN_MOTION_DDOT></tleParameters></data></segment></body></omm>
<omm id="CCSDS_OMM_VERS" version="2.0">
<header><CREATION_DATE/><ORIGINATOR/></header><body><segment><metadata><OBJECT_NAME>ORBCOMM FM113</OBJECT_NAME><OBJECT_ID>2015-081G</OBJECT_ID><CENTER_NAME>EARTH</CENTER_NAME><REF_FRAME>TEME</REF_FRAME><TIME_SYSTEM>UTC</TIME_SYSTEM><MEAN_ELEMENT_THEORY>SGP4</MEAN_ELEMENT_THEORY></metadata><data><meanElements><EPOCH>2025-04-21T06:36:52.109568</EPOCH><MEAN_MOTION>14.58031288</MEAN_MOTION><ECCENTRICITY>.0000312</ECCENTRICITY><INCLINATION>46.9993</INCLINATION><RA_OF_ASC_NODE>104.4063</RA_OF_ASC_NODE><ARG_OF_PERICENTER>185.0722</ARG_OF_PERICENTER><MEAN_ANOMALY>175.0160</MEAN_ANOMALY></meanElements><tleParameters><EPHEMERIS_TYPE>0</EPHEMERIS_TYPE><CLASSIFICATION_TYPE>U</CLASSIFICATION_TYPE><NORAD_CAT_ID>41185</NORAD_CAT_ID><ELEMENT_SET_NO>999</ELEMENT_SET_NO><REV_AT_EPOCH>49741</REV_AT_EPOCH><BSTAR>.37648E-3</BSTAR><MEAN_MOTION_DOT>.1578E-4</MEAN_MOTION_DOT><MEAN_MOTION_DDOT>0</MEAN_MOTION_DDOT></tleParameters></data></segment></body></omm>

</ndm>
